FLOCK 4Y-15             
1 55068U 23001BM  23020.92115748  .00012332  00000+0  68963-3 0  9999
2 55068  97.4999  82.7613 0016373 154.7627 205.4407 15.13503173  2779
FLOCK 4Y-9              
1 55069U 23001BN  23020.92125180  .00011716  00000+0  65599-3 0  9998
2 55069  97.5033  82.7743 0015463 162.3356 197.8416 15.13484297  2776
FLOCK 4Y-26             
1 55070U 23001BP  23020.92116378  .00009060  00000+0  50767-3 0  9999
2 55070  97.4994  82.7608 0016073 152.7395 207.4684 15.13517874  2770
FLOCK 4Y-8              
1 55071U 23001BQ  23020.92155976  .00012191  00000+0  68252-3 0  9994
2 55071  97.5009  82.7628 0016210 156.6929 203.5040 15.13467510  2774
2023-001BR              
1 55072U 23001BR  23021.11974840  .00015194  00000+0  84776-3 0  9991
2 55072  97.5054  82.9727 0016098 156.1389 204.0591 15.13538180  2809
TAUSAT-2                
1 55073U 23001BS  23020.92089857  .00015258  00000+0  83469-3 0  9994
2 55073  97.5029  82.7692 0017981 138.0447 222.2166 15.14214543  2778
FLOCK 4Y-2              
1 55074U 23001BT  23021.11873518  .00012795  00000+0  71352-3 0  9993
2 55074  97.5039  82.9720 0016000 160.5072 199.6775 15.13600295  2808
FLOCK 4Y-36             
1 55075U 23001BU  23020.92052830  .00012966  00000+0  72363-3 0  9991
2 55075  97.5018  82.7661 0016209 159.1978 200.9917 15.13563811  2770
YAM-5                   
1 55076U 23001BV  23020.92464717  .00006758  00000+0  38413-3 0  9993
2 55076  97.5021  82.7615 0015511 156.7918 203.4017 15.13114658  2776
FLOCK 4Y-21             
1 55077U 23001BW  23020.92031192  .00012381  00000+0  69076-3 0  9999
2 55077  97.5045  82.7773 0016323 159.2322 200.9576 15.13584950  2775
FLOCK 4Y-31             
1 55078U 23001BX  23021.11852739  .00012510  00000+0  69770-3 0  9995
2 55078  97.5002  82.9597 0016553 152.9105 207.2994 15.13591533  2802
FLOCK 4Y-13             
1 55079U 23001BY  23021.11861002  .00012065  00000+0  67343-3 0  9998
2 55079  97.5034  82.9692 0016607 157.7054 202.4903 15.13573189  2804
FLOCK 4Y-23             
1 55080U 23001BZ  23020.91992736  .00012045  00000+0  67157-3 0  9997
2 55080  97.5010  82.7665 0016822 156.0122 204.1897 15.13609847  2773
2023-001CA              
1 55081U 23001CA  23021.11865349  .00010691  00000+0  59747-3 0  9991
2 55081  97.5047  82.9724 0016832 154.8955 205.3098 15.13555440  2802
FLOCK 4Y-34             
1 55082U 23001CB  23020.91995632  .00012221  00000+0  68122-3 0  9996
2 55082  97.5018  82.7693 0016669 154.6961 205.5090 15.13615656  2773
FLOCK 4Y-27             
1 55083U 23001CC  23021.44876179  .00012546  00000+0  69896-3 0  9999
2 55083  97.5010  83.2873 0016877 154.3289 205.8784 15.13625898  2854
2023-001CD              
1 55084U 23001CD  23021.24986578  .00011572  00000+0  64446-3 0  9997
2 55084  97.4995  83.0905 0016524 148.1385 212.0850 15.13665467  2824
2023-001CE              
1 55085U 23001CE  23021.31511845  .00017519  00000+0  96838-3 0  9994
2 55085  97.5003  83.1580 0016795 151.0237 209.1930 15.13831229  2833
2023-001CF              
1 55086U 23001CF  23021.44709791  .00017488  00000+0  96595-3 0  9993
2 55086  97.5032  83.2962 0016810 150.0063 210.2135 15.13857272  2853
SPACEBEE-167            
1 55087U 23001CG  23021.24828635  .00020329  00000+0  11194-2 0  9990
2 55087  97.5013  83.0967 0016694 150.1592 210.0595 15.13937573  2822
2023-001CH              
1 55088U 23001CH  23021.24833605  .00018037  00000+0  99479-3 0  9990
2 55088  97.5073  83.1104 0017033 151.2866 208.9307 15.13900476  2826
SPACEBEE-163            
1 55089U 23001CJ  23021.24764675  .00021034  00000+0  11562-2 0  9998
2 55089  97.5010  83.0974 0016520 150.5009 209.7158 15.13994392  2826
2023-001CK              
1 55090U 23001CK  23021.24818409  .00015289  00000+0  84475-3 0  9994
2 55090  97.5036  83.1029 0017395 153.0561 207.1577 15.13867311  2827
SPACEBEE-164            
1 55091U 23001CL  23021.24718037  .00020921  00000+0  11481-2 0  9996
2 55091  97.5012  83.0978 0017047 149.6417 210.5806 15.14047602  2826
SPACEBEE-166            
1 55092U 23001CM  23021.11397839  .00023819  00000+0  13007-2 0  9991
2 55092  97.5015  82.9686 0018888 151.8432 208.3825 15.14166066  2800
2023-001CN              
1 55093U 23001CN  23021.44590230  .00010921  00000+0  60476-3 0  9991
2 55093  97.5011  83.2923 0017321 147.4518 212.7785 15.13870590  2854
SPACEBEE-165            
1 55094U 23001CP  23021.24642614  .00023316  00000+0  12766-2 0  9994
2 55094  97.5007  83.0972 0015953 148.7144 211.5040 15.14122127  2825
SPACEBEE-162            
1 55095U 23001CQ  23021.24641612  .00020957  00000+0  11478-2 0  9999
2 55095  97.5008  83.0982 0017281 149.2728 210.9519 15.14114360  2822
SPACEBEE-161            
1 55096U 23001CR  23021.18018327  .00020994  00000+0  11494-2 0  9993
2 55096  97.5010  83.0335 0017332 149.4451 210.7794 15.14126393  2811
SPACEBEE-160            
1 55097U 23001CS  23021.24605312  .00021319  00000+0  11661-2 0  9995
2 55097  97.5009  83.0987 0017429 149.1303 211.0958 15.14154566  2823
BDSAT-2                 
1 55098U 23001CT  23021.11460025  .00016404  00000+0  90256-3 0  9999
2 55098  97.5065  82.9803 0017649 149.7798 210.4455 15.13998009  2809
SPACEBEE-156            
1 55099U 23001CU  23021.17989017  .00021330  00000+0  11666-2 0  9994
2 55099  97.5010  83.0338 0017417 149.4702 210.7547 15.14157441  2814
SPACEBEE-158            
1 55100U 23001CV  23021.17988556  .00023787  00000+0  12995-2 0  9998
2 55100  97.5006  83.0331 0017774 149.7868 210.4393 15.14170012  2812
SPACEBEE-159            
1 55101U 23001CW  23021.24519599  .00023585  00000+0  12841-2 0  9990
2 55101  97.5010  83.0996 0018278 148.4623 211.7708 15.14284121  2822
SPACEBEE-157            
1 55102U 23001CX  23021.11330466  .00025317  00000+0  13805-2 0  9997
2 55102  97.5008  82.9691 0016835 152.6150 207.5973 15.14236584  2804
2023-001CY              
1 55103U 23001CY  23021.18068577  .00010093  00000+0  55861-3 0  9990
2 55103  97.5043  83.0407 0017959 147.9092 212.3237 15.13903121  2816
MARIO                   
1 55123U 98067UQ  23021.46561636  .00108044  00000+0  16282-2 0  9998
2 55123  51.6426 334.9530 0000855   8.7818 351.3188 15.53943194  3645
NUTSAT                  
1 55124U 98067UR  23021.26772683  .00152774  00000+0  22020-2 0  9999
2 55124  51.6420 335.8810 0000353 132.6765 227.4256 15.54971489  3606
LORIS                   
1 55125U 98067US  23021.27648633  .00086996  00000+0  13468-2 0  9996
2 55125  51.6420 335.9392 0001895 343.5934  16.4995 15.53302898  3625
ORCASAT                 
1 55126U 98067UT  23021.15000312  .00075267  00000+0  11833-2 0  9993
2 55126  51.6427 336.5944 0002180 340.1766  19.9139 15.52940969  3609
DANTESAT                
1 55127U 98067UU  23020.49084082  .00753087  00000+0  42476-2 0  9996
2 55127  51.6394 338.1854 0011557 158.8771 201.2708 15.76451226  3482
TJREVERB                
1 55128U 98067UV  23020.89452498  .00079226  00000+0  12459-2 0  9995
2 55128  51.6421 337.8882 0002971 310.7539  49.3193 15.52908730  3550
SPORT                   
1 55129U 98067UW  23020.45098911  .00041504  00000+0  68763-3 0  9992
2 55129  51.6417 340.1746 0001762 301.4826  58.5991 15.51739289  3485
PETITSAT                
1 55130U 98067UX  23021.47640421  .00131079  00000+0  20051-2 0  9990
2 55130  51.6428 335.0232 0001468 235.5880 124.4972 15.53429032  3590
SHIJIAN-23 (SJ-23)      
1 55131U 23002A   23020.71090972 -.00000308  00000+0  00000+0 0  9994
2 55131   0.5092  95.3022 0031740 239.0287 185.9136  0.99666115   220
CZ-7A R/B               
1 55132U 23002B   23021.42585234  .00199390  69572-6  32866-2 0  9997
2 55132  16.4872  93.6602 7180865 188.7156 143.7333  2.45989649   306
2023-003A               
1 55133U 23003A   23021.45985756  .00026500  00000+0  13162-2 0  9999
2 55133  97.2714 111.0734 0007023 214.4062 207.7750 15.17625199  1855
2023-003B               
1 55134U 23003B   23021.52646991  .00011738  00000+0  52818-3 0  9992
2 55134  97.2714 111.1911 0012160 245.7681 310.0252 15.21179248  1855
2023-003C               
1 55135U 23003C   23021.44696995  .00010400  00000+0  46612-3 0  9993
2 55135  97.2741 111.1227 0012057 250.3971 238.5532 15.21348716  1869
2023-003D               
1 55136U 23003D   23021.44579894  .00017275  00000+0  76632-3 0  9994
2 55136  97.2710 111.1198 0011657 252.8859 236.4763 15.21586332  1850
2023-003E               
1 55137U 23003E   23021.44592612  .00010441  00000+0  46617-3 0  9996
2 55137  97.2681 111.1151 0012192 252.8161 236.0269 15.21477633  1858
ONEWEB-0532             
1 55140U 23004A   23021.18250765  .00004067  00000+0  40780-3 0  9994
2 55140  86.5124 280.9245 0011523 172.1539 187.9871 14.91049216  1787
ONEWEB-0533             
1 55141U 23004B   23021.24856058  .00008363  00000+0  83807-3 0  9999
2 55141  86.5116 280.8913 0012146 173.0340 187.1059 14.91197929  1798
ONEWEB-0541             
1 55142U 23004C   23021.45275724 -.00075018  00000+0 -77629-2 0  9995
2 55142  86.5154 280.8101 0009825 168.8837 191.2609 14.90564973  1820
ONEWEB-0543             
1 55143U 23004D   23021.25181079  .00006436  00000+0  65184-3 0  9993
2 55143  86.5144 280.8995 0010045 172.1135 188.0252 14.90754901  1792
ONEWEB-0544             
1 55144U 23004E   23021.00001157  .00019310  00000+0  19117-2 0  9994
2 55144  86.5114 281.0004 0013684 181.3576 304.7653 14.91684778  1761
ONEWEB-0560             
1 55145U 23004F   23021.17756572  .00006645  00000+0  65636-3 0  9996
2 55145  86.5130 280.9212 0013765 181.2327 178.8869 14.91728285  1785
ONEWEB-0565             
1 55146U 23004G   23021.44401318  .00007600  00000+0  74635-3 0  9993
2 55146  86.5104 280.8017 0013898 183.0687 177.0458 14.91974011  1825
ONEWEB-0567             
1 55147U 23004H   23021.24325177  .00006647  00000+0  65335-3 0  9997
2 55147  86.5104 280.8903 0013900 184.3958 175.7150 14.91919784  1795
